{"type": "FeatureCollection", "features": [ {"type": "Feature", "properties": {"norad_id": 33939, "name": "COSMOS 2251 DEB", "group": "cosmos-2251-debris", "lat": -59.381643051142966, "lon": -100.16724115837688, "alt_km": 573.005005197143, "timestamp": "2025-12-27T08:36:18.777782+00:00", "meta": {"OBJECT_NAME": "COSMOS 2251 DEB", "OBJECT_ID": "1993-036EU", "EPOCH": "2025-12-27T04:19:27.144192", "MEAN_MOTION": 15.00909119, "ECCENTRICITY": 0.0005275, "INCLINATION": 74.0061, "RA_OF_ASC_NODE": 51.2072, "ARG_OF_PERICENTER": 10.4661, "MEAN_ANOMALY": 349.6635, "EPHEMERIS_TYPE": 0, "CLASSIFICATION_TYPE": "U", "NORAD_CAT_ID": 33939, "ELEMENT_SET_NO": 999, "REV_AT_EPOCH": 88969, "BSTAR": 0.0033803, "MEAN_MOTION_DOT": 0.00043301, "MEAN_MOTION_DDOT": 0}, "tle": {"line1": "1 33939U 93036EU  25361.18017528  .00043301  00000+0  33803-2 0  9996", "line2": "2 33939  74.0061  51.2072 0005275  10.4661 349.6635 15.00909119889692"}}, "geometry": {"type": "Point", "coordinates": [-100.16724115837688, -59.381643051142966]}}, {"type": "Feature", "properties": {"norad_id": 33940, "name": "COSMOS 2251 DEB", "group": "cosmos-2251-debris", "lat": -9.376145543624451, "lon": 112.95172152665977, "alt_km": 707.1071327356985, "timestamp": "2025-12-27T08:36:18.777792+00:00", "meta": {"OBJECT_NAME": "COSMOS 2251 DEB", "OBJECT_ID": "1993-036EV", "EPOCH": "2025-12-26T18:32:03.681312", "MEAN_MOTION": 14.58931988, "ECCENTRICITY": 0.0010588, "INCLINATION": 74.0399, "RA_OF_ASC_NODE": 116.7763, "ARG_OF_PERICENTER": 197.6819, "MEAN_ANOMALY": 314.6193, "EPHEMERIS_TYPE": 0, "CLASSIFICATION_TYPE": "U", "NORAD_CAT_ID": 33940, "ELEMENT_SET_NO": 999, "REV_AT_EPOCH": 88798, "BSTAR": 0.0012113808, "MEAN_MOTION_DOT": 5.659e-05, "MEAN_MOTION_DDOT": 0}, "tle": {"line1": "1 33940U 93036EV  25360.77226483  .00005659  00000+0  12114-2 0  9990", "line2": "2 33940  74.0399 116.7763 0010588 197.6819 314.6193 14.58931988887980"}}, "geometry": {"type": "Point", "coordinates": [112.95172152665977, -9.376145543624451]}}, {"type": "Feature", "properties": {"norad_id": 33942, "name": "COSMOS 2251 DEB", "group": "cosmos-2251-debris", "lat": 9.045131633868998, "lon": 65.29446308175072, "alt_km": 780.2807277036782, "timestamp": "2025-12-27T08:36:18.777802+00:00", "meta": {"OBJECT_NAME": "COSMOS 2251 DEB", "OBJECT_ID": "1993-036EX", "EPOCH": "2025-12-27T03:31:58.772064", "MEAN_MOTION": 14.38007964, "ECCENTRICITY": 0.0020878, "INCLINATION": 74.0358, "RA_OF_ASC_NODE": 248.2954, "ARG_OF_PERICENTER": 328.9881, "MEAN_ANOMALY": 187.9338, "EPHEMERIS_TYPE": 0, "CLASSIFICATION_TYPE": "U", "NORAD_CAT_ID": 33942, "ELEMENT_SET_NO": 999, "REV_AT_EPOCH": 88341, "BSTAR": 0.00021621, "MEAN_MOTION_DOT": 6.29e-06, "MEAN_MOTION_DDOT": 0}, "tle": {"line1": "1 33942U 93036EX  25361.14720801  .00000629  00000+0  21621-3 0  9993", "line2": "2 33942  74.0358 248.2954 0020878 328.9881 187.9338 14.38007964883413"}}, "geometry": {"type": "Point", "coordinates": [65.29446308175072, 9.045131633868998]}}, {"type": "Feature", "properties": {"norad_id": 33944, "name": "COSMOS 2251 DEB", "group": "cosmos-2251-debris", "lat": 10.720252688914053, "lon": -74.8636912151742, "alt_km": 688.1919610592486, "timestamp": "2025-12-27T08:36:18.777812+00:00", "meta": {"OBJECT_NAME": "COSMOS 2251 DEB", "OBJECT_ID": "1993-036EZ", "EPOCH": "2025-12-27T04:02:27.746016", "MEAN_MOTION": 14.37377279, "ECCENTRICITY": 0.0112828, "INCLINATION": 74.0407, "RA_OF_ASC_NODE": 282.3805, "ARG_OF_PERICENTER": 18.3351, "MEAN_ANOMALY": 89.4113, "EPHEMERIS_TYPE": 0, "CLASSIFICATION_TYPE": "U", "NORAD_CAT_ID": 33944, "ELEMENT_SET_NO": 999, "REV_AT_EPOCH": 88235, "BSTAR": 0.00042647, "MEAN_MOTION_DOT": 1.343e-05, "MEAN_MOTION_DDOT": 0}, "tle": {"line1": "1 33944U 93036EZ  25361.16837669  .00001343  00000+0  42647-3 0  9993", "line2": "2 33944  74.0407 282.3805 0112828  18.3351  89.4113 14.37377279882350"}}, "geometry": {"type": "Point", "coordinates": [-74.8636912151742, 10.720252688914053]}}, {"type": "Feature", "properties": {"norad_id": 33945, "name": "COSMOS 2251 DEB", "group": "cosmos-2251-debris", "lat": 18.715587054044327, "lon": -74.95198227943038, "alt_km": 760.8697154025185, "timestamp": "2025-12-27T08:36:18.777822+00:00", "meta": {"OBJECT_NAME": "COSMOS 2251 DEB", "OBJECT_ID": "1993-036FA", "EPOCH": "2025-12-27T03:29:39.263712", "MEAN_MOTION": 14.34612406, "ECCENTRICITY": 0.0022532, "INCLINATION": 74.0302, "RA_OF_ASC_NODE": 279.8708, "ARG_OF_PERICENTER": 2.504, "MEAN_ANOMALY": 357.622, "EPHEMERIS_TYPE": 0, "CLASSIFICATION_TYPE": "U", "NORAD_CAT_ID": 33945, "ELEMENT_SET_NO": 999, "REV_AT_EPOCH": 88222, "BSTAR": 0.00015444, "MEAN_MOTION_DOT": 4.11e-06, "MEAN_MOTION_DDOT": 0}, "tle": {"line1": "1 33945U 93036FA  25361.14559333  .00000411  00000+0  15444-3 0  9991", "line2": "2 33945  74.0302 279.8708 0022532   2.5040 357.6220 14.34612406882226"}}, "geometry": {"type": "Point", "coordinates": [-74.95198227943038, 18.715587054044327]}}, {"type": "Feature", "properties": {"norad_id": 33948, "name": "COSMOS 2251 DEB", "group": "cosmos-2251-debris", "lat": -69.87438625564943, "lon": -133.05213285699912, "alt_km": 773.6358368218835, "timestamp": "2025-12-27T08:36:18.777832+00:00", "meta": {"OBJECT_NAME": "COSMOS 2251 DEB", "OBJECT_ID": "1993-036FD", "EPOCH": "2025-12-27T03:56:51.236160", "MEAN_MOTION": 14.35646381, "ECCENTRICITY": 0.0023367, "INCLINATION": 74.036, "RA_OF_ASC_NODE": 278.6683, "ARG_OF_PERICENTER": 351.1481, "MEAN_ANOMALY": 8.9256, "EPHEMERIS_TYPE": 0, "CLASSIFICATION_TYPE": "U", "NORAD_CAT_ID": 33948, "ELEMENT_SET_NO": 999, "REV_AT_EPOCH": 88230, "BSTAR": 0.00022295, "MEAN_MOTION_DOT": 6.19e-06, "MEAN_MOTION_DDOT": 0}, "tle": {"line1": "1 33948U 93036FD  25361.16448190  .00000619  00000+0  22295-3 0  9996", "line2": "2 33948  74.0360 278.6683 0023367 351.1481   8.9256 14.35646381882305"}}, "geometry": {"type": "Point", "coordinates": [-133.05213285699912, -69.87438625564943]}}, {"type": "Feature", "properties": {"norad_id": 33971, "name": "COSMOS 2251 DEB", "group": "cosmos-2251-debris", "lat": -24.956419386138077, "lon": 54.37755112295846, "alt_km": 771.1182386671499, "timestamp": "2025-12-27T08:36:18.777842+00:00", "meta": {"OBJECT_NAME": "COSMOS 2251 DEB", "OBJECT_ID": "1993-036FE", "EPOCH": "2025-12-27T01:30:10.182240", "MEAN_MOTION": 14.39749358, "ECCENTRICITY": 0.0019064, "INCLINATION": 74.0235, "RA_OF_ASC_NODE": 227.2625, "ARG_OF_PERICENTER": 325.5031, "MEAN_ANOMALY": 147.3832, "EPHEMERIS_TYPE": 0, "CLASSIFICATION_TYPE": "U", "NORAD_CAT_ID": 33971, "ELEMENT_SET_NO": 999, "REV_AT_EPOCH": 88345, "BSTAR": 0.00027337, "MEAN_MOTION_DOT": 8.32e-06, "MEAN_MOTION_DDOT": 0}, "tle": {"line1": "1 33971U 93036FE  25361.06261785  .00000832  00000+0  27337-3 0  9993", "line2": "2 33971  74.0235 227.2625 0019064 325.5031 147.3832 14.39749358883450"}}, "geometry": {"type": "Point", "coordinates": [54.37755112295846, -24.956419386138077]}}, {"type": "Feature", "properties": {"norad_id": 33972, "name": "COSMOS 2251 DEB", "group": "cosmos-2251-debris", "lat": -36.29707555143496, "lon": 151.56930050286593, "alt_km": 688.3447084466043, "timestamp": "2025-12-27T08:36:18.777853+00:00", "meta": {"OBJECT_NAME": "COSMOS 2251 DEB", "OBJECT_ID": "1993-036FF", "EPOCH": "2025-12-26T21:46:53.946048", "MEAN_MOTION": 14.36338237, "ECCENTRICITY": 0.012408, "INCLINATION": 73.9944, "RA_OF_ASC_NODE": 164.5705, "ARG_OF_PERICENTER": 329.1123, "MEAN_ANOMALY": 182.105, "EPHEMERIS_TYPE": 0, "CLASSIFICATION_TYPE": "U", "NORAD_CAT_ID": 33972, "ELEMENT_SET_NO": 999, "REV_AT_EPOCH": 87277, "BSTAR": 0.0017751, "MEAN_MOTION_DOT": 5.646e-05, "MEAN_MOTION_DDOT": 0}, "tle": {"line1": "1 33972U 93036FF  25360.90756882  .00005646  00000+0  17751-2 0  9999", "line2": "2 33972  73.9944 164.5705 0124080 329.1123 182.1050 14.36338237872774"}}, "geometry": {"type": "Point", "coordinates": [151.56930050286593, -36.29707555143496]}}, {"type": "Feature", "properties": {"norad_id": 33973, "name": "COSMOS 2251 DEB", "group": "cosmos-2251-debris", "lat": -11.666032832426774, "lon": -101.00721082529958, "alt_km": 727.3702926815613, "timestamp": "2025-12-27T08:36:18.777862+00:00", "meta": {"OBJECT_NAME": "COSMOS 2251 DEB", "OBJECT_ID": "1993-036FG", "EPOCH": "2025-12-27T04:31:32.327040", "MEAN_MOTION": 14.45406852, "ECCENTRICITY": 0.004736, "INCLINATION": 74.0087, "RA_OF_ASC_NODE": 75.9156, "ARG_OF_PERICENTER": 251.6992, "MEAN_ANOMALY": 136.6566, "EPHEMERIS_TYPE": 0, "CLASSIFICATION_TYPE": "U", "NORAD_CAT_ID": 33973, "ELEMENT_SET_NO": 999, "REV_AT_EPOCH": 88809, "BSTAR": 0.00017203, "MEAN_MOTION_DOT": 5.85e-06, "MEAN_MOTION_DDOT": 0}, "tle": {"line1": "1 33973U 93036FG  25361.18856860  .00000585  00000+0  17203-3 0  9998", "line2": "2 33973  74.0087  75.9156 0047360 251.6992 136.6566 14.45406852888095"}}, "geometry": {"type": "Point", "coordinates": [-101.00721082529958, -11.666032832426774]}}, {"type": "Feature", "properties": {"norad_id": 33975, "name": "COSMOS 2251 DEB", "group": "cosmos-2251-debris", "lat": -58.41761422003628, "lon": 30.537689923254263, "alt_km": 939.461451657573, "timestamp": "2025-12-27T08:36:18.777885+00:00", "meta": {"OBJECT_NAME": "COSMOS 2251 DEB", "OBJECT_ID": "1993-036FJ", "EPOCH": "2025-12-27T03:46:06.774240", "MEAN_MOTION": 14.00552925, "ECCENTRICITY": 0.019073, "INCLINATION": 73.8014, "RA_OF_ASC_NODE": 59.1095, "ARG_OF_PERICENTER": 189.7572, "MEAN_ANOMALY": 169.9839, "EPHEMERIS_TYPE": 0, "CLASSIFICATION_TYPE": "U", "NORAD_CAT_ID": 33975, "ELEMENT_SET_NO": 999, "REV_AT_EPOCH": 86031, "BSTAR": 0.0005344, "MEAN_MOTION_DOT": 9.04e-06, "MEAN_MOTION_DDOT": 0}, "tle": {"line1": "1 33975U 93036FJ  25361.15702285  .00000904  00000+0  53440-3 0  9996", "line2": "2 33975  73.8014  59.1095 0190730 189.7572 169.9839 14.00552925860316"}}, "geometry": {"type": "Point", "coordinates": [30.537689923254263, -58.41761422003628]}}]}